PAKSAT-1R               
1 37779U 11042A   26182.16434228  .00000164  00000+0  00000+0 0  9999
2 37779   0.7235  84.4877 0003418 352.2379 299.6190  1.00274132 54619
SES-2                   
1 37809U 11049A   26182.20530882 -.00000185  00000+0  00000+0 0  9992
2 37809   0.0939  93.2426 0003105   5.6306 167.2985  1.00271252 54103
ARABSAT-5C              
1 37810U 11049B   26182.16078894  .00000134  00000+0  00000+0 0  9992
2 37810   0.0511  19.2271 0003367  98.8053 239.0503  1.00271428 54176
EUTELSAT 7 WEST A       
1 37816U 11051A   26182.15532890 -.00000050  00000+0  00000+0 0  9999
2 37816   0.0599   4.0524 0004748 106.6148 217.1519  1.00271548 54018
QUETZSAT 1              
1 37826U 11054A   26182.14155766 -.00000231  00000+0  00000+0 0  9996
2 37826   0.0105  15.0014 0002990  90.2152 147.9504  1.00271077 50015
INTELSAT 18 (IS-18)     
1 37834U 11056A   26182.12119800  .00000000  00000+0  00000+0 0  9997
2 37834   0.0227  24.9793 0002084  82.4550  35.3776  1.00269543 53953
EUTELSAT 16A            
1 37836U 11057A   26182.16000894  .00000115  00000+0  00000+0 0  9993
2 37836   0.0436 333.5786 0005643 125.8431 253.4055  1.00273947  7474
VIASAT-1                
1 37843U 11059A   26182.21086374  .00000000  00000+0  00000+0 0  9999
2 37843   0.0242  27.0947 0002616  73.9804 139.0024  1.00269206 47466
ASIASAT 7               
1 37933U 11069A   26182.05530701 -.00000323  00000+0  00000+0 0  9999
2 37933   0.0262 289.6162 0001634 144.9381 329.9891  1.00272787 44996
BEIDOU-2 IGSO-5         
1 37948U 11073A   26175.65702808 -.00000196  00000+0  00000+0 0  9995
2 37948  47.6633 271.4526 0114223 222.0346 107.5350  1.00272136 53204
LUCH-5A                 
1 37951U 11074B   26181.63402544 -.00000046  00000+0  00000+0 0  9993
2 37951   8.7862  73.6128 0002722  38.7683 201.5027  1.00272761 53183
NIGCOMSAT 1R            
1 38014U 11077A   26182.16520896  .00000156  00000+0  00000+0 0  9998
2 38014   0.0494 205.7358 0002753 153.0522  22.3864  1.00271168 53098
WGS F4 (USA 233)        
1 38070U 12003A   26182.17422234  .00000000  00000+0  00000+0 0  9996
2 38070   0.0231  31.7321 0001727  91.6128 307.0226  1.00268203 44287
SES-4                   
1 38087U 12007A   26182.15246889 -.00000158  00000+0  00000+0 0  9991
2 38087   0.0232  42.6586 0002437  55.3132 214.1195  1.00269655 52364
BEIDOU-2 G5             
1 38091U 12008A   26182.16850231  .00000063  00000+0  00000+0 0  9994
2 38091   3.6073  69.6173 0008414 275.6605  53.4132  1.00277326 52500
MUOS-1                  
1 38093U 12009A   26182.15044918 -.00000120  00000+0  00000+0 0  9998
2 38093   5.5039  47.1392 0057581   2.6265 183.6274  1.00272699 52587
INTELSAT 22 (IS-22)     
1 38098U 12011A   26182.17110233  .00000000  00000+0  00000+0 0  9998
2 38098   0.0489  67.4144 0001729  44.0395 301.4730  1.00270541  7321
APSTAR-7                
1 38107U 12013A   26182.17196899 -.00000091  00000+0  00000+0 0  9994
2 38107   0.0233  74.3262 0003284  32.6992 310.6251  1.00272124 51947
YAHSAT 1B               
1 38245U 12016A   26180.94142138  .00000138  00000+0  00000+0 0  9991
2 38245   0.0900  89.0120 0003604  35.6808 179.8291  1.00269200 45732
AEHF-2 (USA 235)        
1 38254U 12019A   26181.94975752 -.00000129  00000+0  00000+0 0  9992
2 38254   6.6810  57.3895 0001955  35.8059 151.1839  1.00273306  7122
JCSAT-13                
1 38331U 12023A   26182.04419734 -.00000346  00000+0  00000+0 0  9999
2 38331   0.0184  13.1655 0003008  98.1232 307.7282  1.00271277 51675
VINASAT-2               
1 38332U 12023B   26181.47003027 -.00000318  00000+0  00000+0 0  9999
2 38332   0.0138  14.9404 0002570  88.1195 116.5383  1.00271649 46794
NIMIQ 6                 
1 38342U 12026A   26182.18783536 -.00000163  00000+0  00000+0 0  9990
2 38342   0.0434 276.8237 0002932 184.2926 154.6450  1.00272724 50551
ZHONGXING-2A            
1 38352U 12028A   26182.06086472 -.00000283  00000+0  00000+0 0  9998
2 38352   1.4893  83.7234 0001965  28.6023 286.9409  1.00272394 51436
INTELSAT 19 (IS-19)     
1 38356U 12030A   26182.19141894 -.00000046  00000+0  00000+0 0  9996
2 38356   0.0180  24.0637 0003408  84.4354  45.6596  1.00271581 50590
ECHOSTAR 17             
1 38551U 12035A   26182.13933703 -.00000065  00000+0  00000+0 0  9991
2 38551   0.0187  22.1387 0001958  80.5492 119.5726  1.00272428 51209
METEOSAT-10 (MSG-3)     
1 38552U 12035B   26182.01423472  .00000001  00000+0  00000+0 0  9995
2 38552   4.7026  60.9544 0001674  14.0096 209.3719  1.00269335 50993
SES-5                   
1 38652U 12036A   26182.15775558  .00000044  00000+0  00000+0 0  9994
2 38652   0.0474 317.1039 0002296 142.3984 241.4886  1.00272231 44598
INTELSAT 20 (IS-20)     
1 38740U 12043A   26181.93725450  .00000000  00000+0  00000+0 0  9993
2 38740   0.0436  75.9415 0002202 109.6201 139.3398  1.00270880 50886
HYLAS 2                 
1 38741U 12043B   26182.14242433 -.00000249  00000+0  00000+0 0  9999
2 38741   2.4615  80.9084 0002836  37.7444 139.2419  1.00270692 50911
INTELSAT 21 (IS-21)     
1 38749U 12045A   26182.03325037 -.00000274  00000+0  00000+0 0  9997
2 38749   0.0325 277.5819 0001918 191.6392 123.8387  1.00273565 50660
ASTRA 2F                
1 38778U 12051A   26182.16243560  .00000160  00000+0  00000+0 0  9993
2 38778   0.0747 254.1980 0002244 276.0186 195.6749  1.00271739 41279
