OBJECT_NAME,OBJECT_ID,EPOCH,MEAN_MOTION,ECCENTRICITY,INCLINATION,RA_OF_ASC_NODE,ARG_OF_PERICENTER,MEAN_ANOMALY,EPHEMERIS_TYPE,CLASSIFICATION_TYPE,NORAD_CAT_ID,ELEMENT_SET_NO,REV_AT_EPOCH,BSTAR,MEAN_MOTION_DOT,MEAN_MOTION_DDOT
PAKSAT-1R,2011-042A,2026-07-01T03:56:39.172992,1.00274132,.0003418,0.7235,84.4877,352.2379,299.6190,0,U,37779,999,5461,0,.164E-5,0
SES-2,2011-049A,2026-07-01T04:55:38.682048,1.00271252,.0003105,0.0939,93.2426,5.6306,167.2985,0,U,37809,999,5410,0,-.185E-5,0
ARABSAT-5C,2011-049B,2026-07-01T03:51:32.164416,1.00271428,.0003367,0.0511,19.2271,98.8053,239.0503,0,U,37810,999,5417,0,.134E-5,0
EUTELSAT 7 WEST A,2011-051A,2026-07-01T03:43:40.416960,1.00271548,.0004748,0.0599,4.0524,106.6148,217.1519,0,U,37816,999,5401,0,-.5E-6,0
QUETZSAT 1,2011-054A,2026-07-01T03:23:50.581824,1.00271077,.000299,0.0105,15.0014,90.2152,147.9504,0,U,37826,999,5001,0,-.231E-5,0
INTELSAT 18 (IS-18),2011-056A,2026-07-01T02:54:31.507200,1.00269543,.0002084,0.0227,24.9793,82.4550,35.3776,0,U,37834,999,5395,0,0,0
EUTELSAT 16A,2011-057A,2026-07-01T03:50:24.772416,1.00273947,.0005643,0.0436,333.5786,125.8431,253.4055,0,U,37836,999,747,0,.115E-5,0
VIASAT-1,2011-059A,2026-07-01T05:03:38.627136,1.00269206,.0002616,0.0242,27.0947,73.9804,139.0024,0,U,37843,999,4746,0,0,0
ASIASAT 7,2011-069A,2026-07-01T01:19:38.525664,1.00272787,.0001634,0.0262,289.6162,144.9381,329.9891,0,U,37933,999,4499,0,-.323E-5,0
BEIDOU-2 IGSO-5,2011-073A,2026-06-24T15:46:07.226112,1.00272136,.01142233,47.6633,271.4526,222.0346,107.5350,0,U,37948,999,5320,0,-.196E-5,0
LUCH-5A,2011-074B,2026-06-30T15:12:59.798016,1.00272761,.00027228,8.7862,73.6128,38.7683,201.5027,0,U,37951,999,5318,0,-.46E-6,0
NIGCOMSAT 1R,2011-077A,2026-07-01T03:57:54.054144,1.00271168,.0002753,0.0494,205.7358,153.0522,22.3864,0,U,38014,999,5309,0,.156E-5,0
WGS F4 (USA 233),2012-003A,2026-07-01T04:10:52.810176,1.00268203,.0001727,0.0231,31.7321,91.6128,307.0226,0,U,38070,999,4428,0,0,0
SES-4,2012-007A,2026-07-01T03:39:33.312096,1.00269655,.0002437,0.0232,42.6586,55.3132,214.1195,0,U,38087,999,5236,0,-.158E-5,0
BEIDOU-2 G5,2012-008A,2026-07-01T04:02:38.599584,1.00277326,.0008414,3.6073,69.6173,275.6605,53.4132,0,U,38091,999,5250,0,.63E-6,0
MUOS-1,2012-009A,2026-07-01T03:36:38.809152,1.00272699,.0057581,5.5039,47.1392,2.6265,183.6274,0,U,38093,999,5258,0,-.12E-5,0
INTELSAT 22 (IS-22),2012-011A,2026-07-01T04:06:23.241312,1.00270541,.0001729,0.0489,67.4144,44.0395,301.4730,0,U,38098,999,732,0,0,0
APSTAR-7,2012-013A,2026-07-01T04:07:38.120736,1.00272124,.0003284,0.0233,74.3262,32.6992,310.6251,0,U,38107,999,5194,0,-.91E-6,0
YAHSAT 1B,2012-016A,2026-06-29T22:35:38.807232,1.00269200,.00036045,0.0900,89.0120,35.6808,179.8291,0,U,38245,999,4573,0,.138E-5,0
AEHF-2 (USA 235),2012-019A,2026-06-30T22:47:39.049728,1.00273306,.0001955,6.6810,57.3895,35.8059,151.1839,0,U,38254,999,712,0,-.129E-5,0
JCSAT-13,2012-023A,2026-07-01T01:03:38.650176,1.00271277,.0003008,0.0184,13.1655,98.1232,307.7282,0,U,38331,999,5167,0,-.346E-5,0
VINASAT-2,2012-023B,2026-06-30T11:16:50.615328,1.00271649,.00025706,0.0138,14.9404,88.1195,116.5383,0,U,38332,999,4679,0,-.318E-5,0
NIMIQ 6,2012-026A,2026-07-01T04:30:28.975104,1.00272724,.0002932,0.0434,276.8237,184.2926,154.6450,0,U,38342,999,5055,0,-.163E-5,0
ZHONGXING-2A,2012-028A,2026-07-01T01:27:38.711808,1.00272394,.0001965,1.4893,83.7234,28.6023,286.9409,0,U,38352,999,5143,0,-.283E-5,0
INTELSAT 19 (IS-19),2012-030A,2026-07-01T04:35:38.596416,1.00271581,.0003408,0.0180,24.0637,84.4354,45.6596,0,U,38356,999,5059,0,-.46E-6,0
ECHOSTAR 17,2012-035A,2026-07-01T03:20:38.719392,1.00272428,.0001958,0.0187,22.1387,80.5492,119.5726,0,U,38551,999,5120,0,-.65E-6,0
METEOSAT-10 (MSG-3),2012-035B,2026-07-01T00:20:29.879808,1.00269335,.0001674,4.7026,60.9544,14.0096,209.3719,0,U,38552,999,5099,0,.1E-7,0
SES-5,2012-036A,2026-07-01T03:47:10.082112,1.00272231,.0002296,0.0474,317.1039,142.3984,241.4886,0,U,38652,999,4459,0,.44E-6,0
INTELSAT 20 (IS-20),2012-043A,2026-06-30T22:29:38.788800,1.00270880,.0002202,0.0436,75.9415,109.6201,139.3398,0,U,38740,999,5088,0,0,0
HYLAS 2,2012-043B,2026-07-01T03:25:05.462112,1.00270692,.0002836,2.4615,80.9084,37.7444,139.2419,0,U,38741,999,5091,0,-.249E-5,0
INTELSAT 21 (IS-21),2012-045A,2026-07-01T00:47:52.831968,1.00273565,.0001918,0.0325,277.5819,191.6392,123.8387,0,U,38749,999,5066,0,-.274E-5,0
ASTRA 2F,2012-051A,2026-07-01T03:53:54.435840,1.00271739,.0002244,0.0747,254.1980,276.0186,195.6749,0,U,38778,999,4127,0,.16E-5,0
